OBJECT_NAME,OBJECT_ID,EPOCH,MEAN_MOTION,ECCENTRICITY,INCLINATION,RA_OF_ASC_NODE,ARG_OF_PERICENTER,MEAN_ANOMALY,EPHEMERIS_TYPE,CLASSIFICATION_TYPE,NORAD_CAT_ID,ELEMENT_SET_NO,REV_AT_EPOCH,BSTAR,MEAN_MOTION_DOT,MEAN_MOTION_DDOT
CUTE-1 (CO-55),2003-031E,2026-06-10T23:54:00.451584,14.24331910,.00091113,98.6735,170.6324,196.3678,163.7208,0,U,27844,999,19079,.12457809E-3,.244E-5,0
CUBESAT XI-IV (CO-57),2003-031J,2026-06-10T13:25:40.037088,14.23617305,.00086366,98.6767,169.9197,217.5980,142.4596,0,U,27848,999,19043,.11308922E-3,.214E-5,0
CUBESAT XI-V,2005-043F,2026-06-10T16:13:15.786624,14.72614047,.00132407,98.2977,317.1612,222.2954,137.7233,0,U,28895,999,10079,.2044513E-3,.125E-4,0
CUTE-1.7+APD II (CO-65),2008-021C,2026-06-11T05:11:21.776064,15.09396423,.00103169,97.8272,143.5105,56.6803,303.5412,0,U,32785,999,98429,.28480267E-3,.449E-4,0
CANX-2,2008-021H,2026-06-10T21:47:34.872864,15.05567204,.00117527,97.8618,141.5635,69.1864,291.0620,0,U,32790,999,98386,.23444958E-3,.3317E-4,0
SEEDS II (CO-66),2008-021J,2026-06-11T06:13:53.331456,15.32546772,.00019675,97.7517,159.8749,23.1856,336.9473,0,U,32791,999,98638,.48819833E-3,.15274E-3,0
SWISSCUBE,2009-051B,2026-06-11T05:11:30.525792,14.62470076,.00056291,98.4041,70.0006,224.4191,135.6559,0,U,35932,999,88828,.16843955E-3,.804E-5,0
BEESAT-1,2009-051C,2026-06-11T05:20:37.623552,14.61710634,.0003964,98.3971,69.6549,240.4948,119.5857,0,U,35933,999,88831,.14238906E-3,.66E-5,0
ITUPSAT1,2009-051E,2026-06-11T04:59:59.441568,14.60431670,.00061318,98.4055,68.8386,256.4621,103.5895,0,U,35935,999,88786,.13682513E-3,.614E-5,0
TISAT 1,2010-035E,2026-06-11T02:33:21.002112,15.31477785,.00005022,98.0700,108.1166,172.8701,187.2545,0,U,36799,999,86677,.61441191E-3,.18616E-3,0
AEROCUBE 4.5A,2012-048K,2026-06-11T01:48:41.495328,15.91322494,.00196148,64.6260,49.1927,217.7804,142.1981,0,U,38767,999,37168,.10426129E-2,.34078E-2,.50566676E-4
STRAND-1,2013-009E,2026-06-10T17:17:24.189504,14.37159492,.00074787,98.3921,342.1141,247.3445,112.6951,0,U,39090,999,69613,.1009267E-3,.257E-5,0
BRITE-AUSTRIA,2013-009F,2026-06-11T01:53:25.175040,14.36539653,.00089837,98.3993,341.6658,257.1343,102.8840,0,U,39091,999,69617,.64241738E-4,.146E-5,0
NEE-01 PEGASO,2013-018B,2026-06-09T21:31:01.316928,14.93627979,.0012551,98.1215,304.8067,181.9337,178.1836,0,U,39151,999,70961,.23819067E-3,.2457E-4,0
POPACS 2,2013-055E,2026-06-10T06:20:54.981600,14.91044989,.0417121,80.9903,152.1156,216.0318,141.2122,0,U,39269,999,66218,.20956E-3,.12321E-3,0
POPACS 3,2013-055F,2026-06-10T05:56:42.061920,14.55994863,.05527452,81.0014,236.7086,91.1070,275.3476,0,U,39270,999,63754,.23925327E-3,.10174E-3,0
ZACUBE-1 (TSHEPISOSAT),2013-066B,2026-06-11T03:23:55.287168,15.01151583,.00401874,97.8086,124.4456,268.8905,90.7715,0,U,39417,999,67982,.24354498E-3,.311E-4,0
WNISAT-1,2013-066H,2026-06-10T23:11:12.175296,14.58052276,.01617358,97.7194,311.5642,251.3380,107.0203,0,U,39423,999,66582,.12601413E-3,.642E-5,0
TRITON-1,2013-066M,2026-06-11T06:50:49.488864,14.81684162,.0088365,97.8247,72.2264,253.5069,105.6421,0,U,39427,999,67321,.16692783E-3,.1347E-4,0
GOMX-1,2013-066Q,2026-06-11T06:16:59.025792,14.69437683,.01301751,97.6495,3.0988,96.3401,265.2649,0,U,39430,999,66904,.27627428E-3,.1813E-4,0
CUBEBUG-2 (LO-74),2013-066AA,2026-06-11T07:15:18.483264,14.93713369,.00589328,97.8900,111.2555,48.0727,312.5496,0,U,39440,999,67611,.29202653E-3,.3136E-4,0
NEE-02 KRYSAOR,2013-066AB,2026-06-10T19:33:26.684352,14.86590773,.00677385,97.8887,101.0752,90.5941,270.3036,0,U,39441,999,67525,.19319504E-3,.1727E-4,0
FUNCUBE-1 (AO-73),2013-066AE,2026-06-11T03:45:35.066304,15.09415537,.00350863,97.8261,133.4764,221.9456,137.9084,0,U,39444,999,67875,.33386128E-3,.5346E-4,0
UWE-3,2013-066AG,2026-06-10T20:46:39.231840,14.96973562,.00485684,97.8684,117.8971,342.2797,17.6729,0,U,39446,999,67663,.33679492E-3,.3903E-4,0
BRITE-CA1 (TORONTO),2014-033L,2026-06-11T04:40:09.070752,14.72668302,.00773551,97.9731,291.2332,296.5409,62.7884,0,U,40020,999,64133,.94016038E-4,.573E-5,0
DUCHIFAT-1,2014-033M,2026-06-11T03:15:03.447648,15.63383077,.00040908,98.0470,220.4508,126.2071,233.9565,0,U,40021,999,65480,.10060624E-2,.93384E-3,0
NANOSATC-BR1,2014-033Q,2026-06-11T01:31:01.583328,15.31260888,.000381,98.0732,193.9089,179.4826,180.6418,0,U,40024,999,65304,.48612814E-3,.14606E-3,0
QB50P1,2014-033R,2026-06-11T06:49:20.092512,15.18170156,.00072778,98.0967,173.0166,238.4989,121.5533,0,U,40025,999,65213,.31622197E-3,.6389E-4,0
QB50P2,2014-033Y,2026-06-10T22:59:42.139968,15.15079321,.0007357,98.0750,158.4507,183.5273,176.5907,0,U,40032,999,65172,.3298548E-3,.6103E-4,0
PERSEUS-M2,2014-033AD,2026-06-11T05:48:37.882368,14.95492956,.00112551,97.9961,112.6618,326.7833,33.2680,0,U,40037,999,64989,.69002657E-4,.703E-5,0
